{"type": "FeatureCollection", "features": [ {"type": "Feature", "properties": {"norad_id": 66758, "name": "TRANSPORTER-15CW", "group": "last-30-days", "lat": -41.05075097125982, "lon": 79.42100874885986, "alt_km": 519.1935637747083, "timestamp": "2025-12-27T08:36:17.077650+00:00", "meta": {"OBJECT_NAME": "TRANSPORTER-15CW", "OBJECT_ID": "2025-276CW", "EPOCH": "2025-12-27T04:02:29.240736", "MEAN_MOTION": 15.18129232, "ECCENTRICITY": 0.0001574, "INCLINATION": 97.4385, "RA_OF_ASC_NODE": 72.701, "ARG_OF_PERICENTER": 135.9855, "MEAN_ANOMALY": 224.1504, "EPHEMERIS_TYPE": 0, "CLASSIFICATION_TYPE": "U", "NORAD_CAT_ID": 66758, "ELEMENT_SET_NO": 999, "REV_AT_EPOCH": 431, "BSTAR": 0.00041747, "MEAN_MOTION_DOT": 8.456e-05, "MEAN_MOTION_DDOT": 0}, "tle": {"line1": "1 66758U 25276CW  25361.16839399  .00008456  00000+0  41747-3 0  9997", "line2": "2 66758  97.4385  72.7010 0001574 135.9855 224.1504 15.18129232  4310"}}, "geometry": {"type": "Point", "coordinates": [79.42100874885986, -41.05075097125982]}}, {"type": "Feature", "properties": {"norad_id": 66759, "name": "TRANSPORTER-15CX", "group": "last-30-days", "lat": -30.001901020628107, "lon": 77.21751990602705, "alt_km": 517.5002585593429, "timestamp": "2025-12-27T08:36:17.077661+00:00", "meta": {"OBJECT_NAME": "TRANSPORTER-15CX", "OBJECT_ID": "2025-276CX", "EPOCH": "2025-12-27T03:59:32.747136", "MEAN_MOTION": 15.18220044, "ECCENTRICITY": 3.61e-05, "INCLINATION": 97.4377, "RA_OF_ASC_NODE": 72.7027, "ARG_OF_PERICENTER": 177.5318, "MEAN_ANOMALY": 182.5918, "EPHEMERIS_TYPE": 0, "CLASSIFICATION_TYPE": "U", "NORAD_CAT_ID": 66759, "ELEMENT_SET_NO": 999, "REV_AT_EPOCH": 431, "BSTAR": -0.0011738, "MEAN_MOTION_DOT": -0.00023983, "MEAN_MOTION_DDOT": 0}, "tle": {"line1": "1 66759U 25276CX  25361.16635124 -.00023983  00000+0 -11738-2 0  9998", "line2": "2 66759  97.4377  72.7027 0000361 177.5318 182.5918 15.18220044  4318"}}, "geometry": {"type": "Point", "coordinates": [77.21751990602705, -30.001901020628107]}}, {"type": "Feature", "properties": {"norad_id": 66760, "name": "TRANSPORTER-15CY", "group": "last-30-days", "lat": -28.343660500391216, "lon": 76.93699473389287, "alt_km": 517.9609077127934, "timestamp": "2025-12-27T08:36:17.077671+00:00", "meta": {"OBJECT_NAME": "TRANSPORTER-15CY", "OBJECT_ID": "2025-276CY", "EPOCH": "2025-12-27T03:59:06.651744", "MEAN_MOTION": 15.18249139, "ECCENTRICITY": 0.0001738, "INCLINATION": 97.4391, "RA_OF_ASC_NODE": 72.706, "ARG_OF_PERICENTER": 112.5269, "MEAN_ANOMALY": 247.6149, "EPHEMERIS_TYPE": 0, "CLASSIFICATION_TYPE": "U", "NORAD_CAT_ID": 66760, "ELEMENT_SET_NO": 999, "REV_AT_EPOCH": 431, "BSTAR": 0.00058556, "MEAN_MOTION_DOT": 0.00011935, "MEAN_MOTION_DDOT": 0}, "tle": {"line1": "1 66760U 25276CY  25361.16604921  .00011935  00000+0  58556-3 0  9993", "line2": "2 66760  97.4391  72.7060 0001738 112.5269 247.6149 15.18249139  4311"}}, "geometry": {"type": "Point", "coordinates": [76.93699473389287, -28.343660500391216]}}, {"type": "Feature", "properties": {"norad_id": 66761, "name": "TRANSPORTER-15CZ", "group": "last-30-days", "lat": -9.778054284189707, "lon": 74.1931664558981, "alt_km": 515.1763533015192, "timestamp": "2025-12-27T08:36:17.077683+00:00", "meta": {"OBJECT_NAME": "TRANSPORTER-15CZ", "OBJECT_ID": "2025-276CZ", "EPOCH": "2025-12-27T03:54:13.546656", "MEAN_MOTION": 15.18573142, "ECCENTRICITY": 0.0001739, "INCLINATION": 97.439, "RA_OF_ASC_NODE": 72.7102, "ARG_OF_PERICENTER": 121.1382, "MEAN_ANOMALY": 239.0023, "EPHEMERIS_TYPE": 0, "CLASSIFICATION_TYPE": "U", "NORAD_CAT_ID": 66761, "ELEMENT_SET_NO": 999, "REV_AT_EPOCH": 431, "BSTAR": 0.00063356, "MEAN_MOTION_DOT": 0.00013041, "MEAN_MOTION_DDOT": 0}, "tle": {"line1": "1 66761U 25276CZ  25361.16265679  .00013041  00000+0  63356-3 0  9991", "line2": "2 66761  97.4390  72.7102 0001739 121.1382 239.0023 15.18573142  4311"}}, "geometry": {"type": "Point", "coordinates": [74.1931664558981, -9.778054284189707]}}, {"type": "Feature", "properties": {"norad_id": 66762, "name": "HYDROGNSS-1", "group": "last-30-days", "lat": -63.652842336737834, "lon": -122.43764937501071, "alt_km": 520.3735781240548, "timestamp": "2025-12-27T08:36:17.077693+00:00", "meta": {"OBJECT_NAME": "HYDROGNSS-1", "OBJECT_ID": "2025-276DA", "EPOCH": "2025-12-27T04:21:52.013664", "MEAN_MOTION": 15.17334961, "ECCENTRICITY": 0.0001152, "INCLINATION": 97.4402, "RA_OF_ASC_NODE": 72.6885, "ARG_OF_PERICENTER": 226.3457, "MEAN_ANOMALY": 133.7682, "EPHEMERIS_TYPE": 0, "CLASSIFICATION_TYPE": "U", "NORAD_CAT_ID": 66762, "ELEMENT_SET_NO": 999, "REV_AT_EPOCH": 431, "BSTAR": 0.0002262, "MEAN_MOTION_DOT": 4.446e-05, "MEAN_MOTION_DDOT": 0}, "tle": {"line1": "1 66762U 25276DA  25361.18185201  .00004446  00000+0  22620-3 0  9994", "line2": "2 66762  97.4402  72.6885 0001152 226.3457 133.7682 15.17334961  4317"}}, "geometry": {"type": "Point", "coordinates": [-122.43764937501071, -63.652842336737834]}}, {"type": "Feature", "properties": {"norad_id": 66763, "name": "HYDROGNSS-2", "group": "last-30-days", "lat": -75.66922410008115, "lon": -137.8967643743029, "alt_km": 519.991233288737, "timestamp": "2025-12-27T08:36:17.077705+00:00", "meta": {"OBJECT_NAME": "HYDROGNSS-2", "OBJECT_ID": "2025-276DB", "EPOCH": "2025-12-27T04:18:26.170848", "MEAN_MOTION": 15.17462602, "ECCENTRICITY": 0.0001723, "INCLINATION": 97.4407, "RA_OF_ASC_NODE": 72.6959, "ARG_OF_PERICENTER": 214.642, "MEAN_ANOMALY": 145.4701, "EPHEMERIS_TYPE": 0, "CLASSIFICATION_TYPE": "U", "NORAD_CAT_ID": 66763, "ELEMENT_SET_NO": 999, "REV_AT_EPOCH": 431, "BSTAR": 0.00022524, "MEAN_MOTION_DOT": 4.443e-05, "MEAN_MOTION_DDOT": 0}, "tle": {"line1": "1 66763U 25276DB  25361.17946957  .00004443  00000+0  22524-3 0  9997", "line2": "2 66763  97.4407  72.6959 0001723 214.6420 145.4701 15.17462602  4315"}}, "geometry": {"type": "Point", "coordinates": [-137.8967643743029, -75.66922410008115]}}, {"type": "Feature", "properties": {"norad_id": 66764, "name": "TRANSPORTER-15DC", "group": "last-30-days", "lat": -72.59045316552537, "lon": 97.50631799481737, "alt_km": 520.539056162278, "timestamp": "2025-12-27T08:36:17.077716+00:00", "meta": {"OBJECT_NAME": "TRANSPORTER-15DC", "OBJECT_ID": "2025-276DC", "EPOCH": "2025-12-27T04:11:04.140672", "MEAN_MOTION": 15.1772155, "ECCENTRICITY": 0.0002482, "INCLINATION": 97.4398, "RA_OF_ASC_NODE": 72.6964, "ARG_OF_PERICENTER": 179.6306, "MEAN_ANOMALY": 180.493, "EPHEMERIS_TYPE": 0, "CLASSIFICATION_TYPE": "U", "NORAD_CAT_ID": 66764, "ELEMENT_SET_NO": 999, "REV_AT_EPOCH": 431, "BSTAR": 0.0003263, "MEAN_MOTION_DOT": 6.517e-05, "MEAN_MOTION_DDOT": 0}, "tle": {"line1": "1 66764U 25276DC  25361.17435348  .00006517  00000+0  32630-3 0  9998", "line2": "2 66764  97.4398  72.6964 0002482 179.6306 180.4930 15.17721550  4310"}}, "geometry": {"type": "Point", "coordinates": [97.50631799481737, -72.59045316552537]}}, {"type": "Feature", "properties": {"norad_id": 66765, "name": "TRANSPORTER-15DD", "group": "last-30-days", "lat": 12.590409317784419, "lon": 71.24792265706273, "alt_km": 510.8527339958737, "timestamp": "2025-12-27T08:36:17.077726+00:00", "meta": {"OBJECT_NAME": "TRANSPORTER-15DD", "OBJECT_ID": "2025-276DD", "EPOCH": "2025-12-27T03:48:19.933920", "MEAN_MOTION": 15.18848027, "ECCENTRICITY": 0.0001977, "INCLINATION": 97.4414, "RA_OF_ASC_NODE": 72.7239, "ARG_OF_PERICENTER": 113.9291, "MEAN_ANOMALY": 246.2151, "EPHEMERIS_TYPE": 0, "CLASSIFICATION_TYPE": "U", "NORAD_CAT_ID": 66765, "ELEMENT_SET_NO": 999, "REV_AT_EPOCH": 431, "BSTAR": 0.00080087, "MEAN_MOTION_DOT": 0.00016643, "MEAN_MOTION_DDOT": 0}, "tle": {"line1": "1 66765U 25276DD  25361.15856405  .00016643  00000+0  80087-3 0  9998", "line2": "2 66765  97.4414  72.7239 0001977 113.9291 246.2151 15.18848027  4314"}}, "geometry": {"type": "Point", "coordinates": [71.24792265706273, 12.590409317784419]}}, {"type": "Feature", "properties": {"norad_id": 66766, "name": "TRANSPORTER-15DE", "group": "last-30-days", "lat": -7.857087435048961, "lon": 73.92360315570036, "alt_km": 514.5392388424971, "timestamp": "2025-12-27T08:36:17.077737+00:00", "meta": {"OBJECT_NAME": "TRANSPORTER-15DE", "OBJECT_ID": "2025-276DE", "EPOCH": "2025-12-27T03:53:41.708256", "MEAN_MOTION": 15.1846994, "ECCENTRICITY": 0.0001897, "INCLINATION": 97.4355, "RA_OF_ASC_NODE": 72.698, "ARG_OF_PERICENTER": 84.4562, "MEAN_ANOMALY": 275.6889, "EPHEMERIS_TYPE": 0, "CLASSIFICATION_TYPE": "U", "NORAD_CAT_ID": 66766, "ELEMENT_SET_NO": 999, "REV_AT_EPOCH": 431, "BSTAR": 0.00045509, "MEAN_MOTION_DOT": 9.317e-05, "MEAN_MOTION_DDOT": 0}, "tle": {"line1": "1 66766U 25276DE  25361.16228829  .00009317  00000+0  45509-3 0  9993", "line2": "2 66766  97.4355  72.6980 0001897  84.4562 275.6889 15.18469940  4312"}}, "geometry": {"type": "Point", "coordinates": [73.92360315570036, -7.857087435048961]}}, {"type": "Feature", "properties": {"norad_id": 66767, "name": "TRANSPORTER-15DF", "group": "last-30-days", "lat": -13.770955930882325, "lon": 74.72582768244966, "alt_km": 515.6624821232926, "timestamp": "2025-12-27T08:36:17.077748+00:00", "meta": {"OBJECT_NAME": "TRANSPORTER-15DF", "OBJECT_ID": "2025-276DF", "EPOCH": "2025-12-27T03:55:14.964096", "MEAN_MOTION": 15.18369609, "ECCENTRICITY": 0.0002047, "INCLINATION": 97.4364, "RA_OF_ASC_NODE": 72.6995, "ARG_OF_PERICENTER": 85.6323, "MEAN_ANOMALY": 274.5145, "EPHEMERIS_TYPE": 0, "CLASSIFICATION_TYPE": "U", "NORAD_CAT_ID": 66767, "ELEMENT_SET_NO": 999, "REV_AT_EPOCH": 431, "BSTAR": 0.00025851, "MEAN_MOTION_DOT": 5.245e-05, "MEAN_MOTION_DDOT": 0}, "tle": {"line1": "1 66767U 25276DF  25361.16336764  .00005245  00000+0  25851-3 0  9996", "line2": "2 66767  97.4364  72.6995 0002047  85.6323 274.5145 15.18369609  4319"}}, "geometry": {"type": "Point", "coordinates": [74.72582768244966, -13.770955930882325]}}]}